{
    "links": {
        "self": "http://www.neowsapp.com/rest/v1/neo/3759671?api_key=iIulBulltgU6a56xZRHN4H3l9WmuAYTsLGpBGhQ2"
    },
    "id": "3759671",
    "neo_reference_id": "3759671",
    "name": "(2016 SH)",
    "designation": "2016 SH",
    "nasa_jpl_url": "http://ssd.jpl.nasa.gov/sbdb.cgi?sstr=3759671",
    "absolute_magnitude_h": 24.2,
    "estimated_diameter": {
        "kilometers": {
            "estimated_diameter_min": 0.0384197891,
            "estimated_diameter_max": 0.0859092601
        },
        "meters": {
            "estimated_diameter_min": 38.4197891064,
            "estimated_diameter_max": 85.9092601232
        },
        "miles": {
            "estimated_diameter_min": 0.0238729428,
            "estimated_diameter_max": 0.0533815229
        },
        "feet": {
            "estimated_diameter_min": 126.0491808919,
            "estimated_diameter_max": 281.8545369825
        }
    },
    "is_potentially_hazardous_asteroid": false,
    "close_approach_data": [
        {
            "close_approach_date": "2016-09-15",
            "close_approach_date_full": "2016-Sep-15 16:48",
            "epoch_date_close_approach": 1473958080000,
            "relative_velocity": {
                "kilometers_per_second": "16.9292005422",
                "kilometers_per_hour": "60945.1219519524",
                "miles_per_hour": "37868.9286928673"
            },
            "miss_distance": {
                "astronomical": "0.053134976",
                "lunar": "20.669505664",
                "kilometers": "7948879.23210112",
                "miles": "4939204.520870656"
            },
            "orbiting_body": "Earth"
        }
    ],
    "orbital_data": {
        "orbit_id": "4",
        "orbit_determination_date": "2017-04-06 08:23:44",
        "first_observation_date": "2016-09-22",
        "last_observation_date": "2016-10-06",
        "data_arc_in_days": 14,
        "observations_used": 41,
        "orbit_uncertainty": "8",
        "minimum_orbit_intersection": ".0528847",
        "jupiter_tisserand_invariant": "3.993",
        "epoch_osculation": "2457657.5",
        "eccentricity": ".5096830790744814",
        "semi_major_axis": "1.692683764178541",
        "inclination": "20.4717454357641",
        "ascending_node_longitude": "359.4552182741601",
        "orbital_period": "804.3816778959977",
        "perihelion_distance": ".8299514913526391",
        "perihelion_argument": "287.2837416089204",
        "aphelion_distance": "2.555416037004444",
        "perihelion_time": "2457598.709081204850",
        "mean_anomaly": "26.31180116087936",
        "mean_motion": ".4475487320169246",
        "equinox": "J2000",
        "orbit_class": {
            "orbit_class_type": "APO",
            "orbit_class_description": "Near-Earth asteroid orbits which cross the Earth’s orbit similar to that of 1862 Apollo",
            "orbit_class_range": "a (semi-major axis) > 1.0 AU; q (perihelion) < 1.017 AU"
        }
    },
    "is_sentry_object": false
}